GLOBALSTAR M004         
1 25163U 98008B   25082.93785552 -.00000008  00000+0  53029-3 0  9993
2 25163  52.0014 314.2289 0003839  97.7365 276.0438 12.63391704250913
GLOBALSTAR M002         
1 25164U 98008C   25083.05451292 -.00000069  00000+0  14397-3 0  9991
2 25164  51.9994  93.6575 0001239 353.0611   7.0192 11.61507962174241
GLOBALSTAR M003         
1 25165U 98008D   25083.02257890 -.00000058  00000+0  33087-3 0  9992
2 25165  52.0015  44.3860 0008269 120.0621 331.7110 12.12075293222987
GLOBALSTAR M014         
1 25306U 98023A   25082.86878034 -.00000076  00000+0  33980-4 0  9999
2 25306  51.9875  19.1426 0000716 175.2481 222.8768 11.65478783181227
GLOBALSTAR M015         
1 25308U 98023C   25082.63114747 -.00000093  00000+0 -45620-3 0  9993
2 25308  51.9810 163.5706 0012108 282.2392 225.3032 11.48858480184627
GLOBALSTAR M008         
1 25309U 98023D   25082.78600145 -.00000067  00000+0  23225-3 0  9999
2 25309  51.9956  85.6521 0002561   0.9994 170.4233 12.36064866227281
